{
  "type": "FeatureCollection",
  "features": [
    {
      "type": "Feature",
      "properties": {
        "norad_id": 35014,
        "name": "COSMOS 2251 DEB",
        "group": "cosmos-2251-debris",
        "lat": 35.20062392104925,
        "lon": 36.26697640544829,
        "alt_km": 646.0886877286712,
        "timestamp": "2025-12-22T09:53:37.795831+00:00",
        "meta_object_name": "COSMOS 2251 DEB",
        "meta_object_id": "1993-036AGB",
        "meta_epoch": "2025-12-17T09:17:45.359520",
        "meta_mean_motion": 14.75277506,
        "meta_eccentricity": 0.00070196,
        "meta_inclination": 73.9998,
        "meta_ra_of_asc_node": 34.4305,
        "meta_arg_of_pericenter": 212.3979,
        "meta_mean_anomaly": 147.6764,
        "meta_ephemeris_type": 0,
        "meta_classification_type": "U",
        "meta_norad_cat_id": 35014,
        "meta_element_set_no": 999,
        "meta_rev_at_epoch": 71405,
        "meta_bstar": 0.0010947042,
        "meta_mean_motion_dot": 7.39e-05,
        "meta_mean_motion_ddot": 0,
        "tle_line1": "1 35014U 93036AGB 25351.38733055  .00007390  00000+0  10947-2 0  9995",
        "tle_line2": "2 35014  73.9998  34.4305 0007019 212.3979 147.6764 14.75277506714055"
      },
      "geometry": {
        "type": "Point",
        "coordinates": [
          36.26697640544829,
          35.20062392104925
        ]
      }
    },
    {
      "type": "Feature",
      "properties": {
        "norad_id": 35015,
        "name": "COSMOS 2251 DEB",
        "group": "cosmos-2251-debris",
        "lat": 19.17533988589731,
        "lon": 30.80854891667362,
        "alt_km": 723.3320210860247,
        "timestamp": "2025-12-22T09:53:37.795841+00:00",
        "meta_object_name": "COSMOS 2251 DEB",
        "meta_object_id": "1993-036AGC",
        "meta_epoch": "2025-12-21T09:05:04.900416",
        "meta_mean_motion": 14.46918455,
        "meta_eccentricity": 0.00743638,
        "meta_inclination": 73.9465,
        "meta_ra_of_asc_node": 218.4969,
        "meta_arg_of_pericenter": 85.0123,
        "meta_mean_anomaly": 91.7115,
        "meta_ephemeris_type": 0,
        "meta_classification_type": "U",
        "meta_norad_cat_id": 35015,
        "meta_element_set_no": 999,
        "meta_rev_at_epoch": 65565,
        "meta_bstar": 0.0005445635,
        "meta_mean_motion_dot": 2.019e-05,
        "meta_mean_motion_ddot": 0,
        "tle_line1": "1 35015U 93036AGC 25355.37852894  .00002019  00000+0  54456-3 0  9999",
        "tle_line2": "2 35015  73.9465 218.4969 0074363  85.0123  91.7115 14.46918455655659"
      },
      "geometry": {
        "type": "Point",
        "coordinates": [
          30.80854891667362,
          19.17533988589731
        ]
      }
    },
    {
      "type": "Feature",
      "properties": {
        "norad_id": 35016,
        "name": "COSMOS 2251 DEB",
        "group": "cosmos-2251-debris",
        "lat": 48.925814037270456,
        "lon": 77.26111460278922,
        "alt_km": 732.5481256155454,
        "timestamp": "2025-12-22T09:53:37.795850+00:00",
        "meta_object_name": "COSMOS 2251 DEB",
        "meta_object_id": "1993-036AGD",
        "meta_epoch": "2025-12-21T01:36:06.995232",
        "meta_mean_motion": 14.35074677,
        "meta_eccentricity": 0.01140843,
        "meta_inclination": 73.9302,
        "meta_ra_of_asc_node": 279.056,
        "meta_arg_of_pericenter": 194.2679,
        "meta_mean_anomaly": 186.7266,
        "meta_ephemeris_type": 0,
        "meta_classification_type": "U",
        "meta_norad_cat_id": 35016,
        "meta_element_set_no": 999,
        "meta_rev_at_epoch": 86902,
        "meta_bstar": 0.00020302186,
        "meta_mean_motion_dot": 5.95e-06,
        "meta_mean_motion_ddot": 0,
        "tle_line1": "1 35016U 93036AGD 25355.06674763  .00000595  00000+0  20302-3 0  9993",
        "tle_line2": "2 35016  73.9302 279.0560 0114084 194.2679 186.7266 14.35074677869021"
      },
      "geometry": {
        "type": "Point",
        "coordinates": [
          77.26111460278922,
          48.925814037270456
        ]
      }
    },
    {
      "type": "Feature",
      "properties": {
        "norad_id": 35018,
        "name": "COSMOS 2251 DEB",
        "group": "cosmos-2251-debris",
        "lat": 25.804038879368328,
        "lon": 102.03966962867584,
        "alt_km": 775.0063300094553,
        "timestamp": "2025-12-22T09:53:37.795860+00:00",
        "meta_object_name": "COSMOS 2251 DEB",
        "meta_object_id": "1993-036AGF",
        "meta_epoch": "2025-12-21T14:27:14.171040",
        "meta_mean_motion": 13.67131243,
        "meta_eccentricity": 0.0348897,
        "meta_inclination": 73.9753,
        "meta_ra_of_asc_node": 95.386,
        "meta_arg_of_pericenter": 2.6305,
        "meta_mean_anomaly": 357.6538,
        "meta_ephemeris_type": 0,
        "meta_classification_type": "U",
        "meta_norad_cat_id": 35018,
        "meta_element_set_no": 999,
        "meta_rev_at_epoch": 83307,
        "meta_bstar": 0.00070084,
        "meta_mean_motion_dot": 8.72e-06,
        "meta_mean_motion_ddot": 0,
        "tle_line1": "1 35018U 93036AGF 25355.60224735  .00000872  00000+0  70084-3 0  9995",
        "tle_line2": "2 35018  73.9753  95.3860 0348897   2.6305 357.6538 13.67131243833078"
      },
      "geometry": {
        "type": "Point",
        "coordinates": [
          102.03966962867584,
          25.804038879368328
        ]
      }
    },
    {
      "type": "Feature",
      "properties": {
        "norad_id": 35020,
        "name": "COSMOS 2251 DEB",
        "group": "cosmos-2251-debris",
        "lat": 64.5787581039998,
        "lon": -36.58995841934689,
        "alt_km": 741.8660455783756,
        "timestamp": "2025-12-22T09:53:37.795870+00:00",
        "meta_object_name": "COSMOS 2251 DEB",
        "meta_object_id": "1993-036AGH",
        "meta_epoch": "2025-12-21T21:53:57.089184",
        "meta_mean_motion": 14.6281821,
        "meta_eccentricity": 0.0091292,
        "meta_inclination": 74.0451,
        "meta_ra_of_asc_node": 181.3743,
        "meta_arg_of_pericenter": 293.3568,
        "meta_mean_anomaly": 65.8014,
        "meta_ephemeris_type": 0,
        "meta_classification_type": "U",
        "meta_norad_cat_id": 35020,
        "meta_element_set_no": 999,
        "meta_rev_at_epoch": 88372,
        "meta_bstar": 0.00012287,
        "meta_mean_motion_dot": 6.31e-06,
        "meta_mean_motion_ddot": 0,
        "tle_line1": "1 35020U 93036AGH 25355.91246631  .00000631  00000+0  12287-3 0  9995",
        "tle_line2": "2 35020  74.0451 181.3743 0091292 293.3568  65.8014 14.62818210883724"
      },
      "geometry": {
        "type": "Point",
        "coordinates": [
          -36.58995841934689,
          64.5787581039998
        ]
      }
    },
    {
      "type": "Feature",
      "properties": {
        "norad_id": 35022,
        "name": "COSMOS 2251 DEB",
        "group": "cosmos-2251-debris",
        "lat": 73.7275304272185,
        "lon": 44.556045811714434,
        "alt_km": 660.7004129624847,
        "timestamp": "2025-12-22T09:53:37.795880+00:00",
        "meta_object_name": "COSMOS 2251 DEB",
        "meta_object_id": "1993-036AGK",
        "meta_epoch": "2025-12-15T14:45:27.251136",
        "meta_mean_motion": 14.60846809,
        "meta_eccentricity": 0.00465822,
        "meta_inclination": 74.027,
        "meta_ra_of_asc_node": 316.4327,
        "meta_arg_of_pericenter": 155.4398,
        "meta_mean_anomaly": 204.9001,
        "meta_ephemeris_type": 0,
        "meta_classification_type": "U",
        "meta_norad_cat_id": 35022,
        "meta_element_set_no": 999,
        "meta_rev_at_epoch": 59185,
        "meta_bstar": 0.00033959453,
        "meta_mean_motion_dot": 1.655e-05,
        "meta_mean_motion_ddot": 0,
        "tle_line1": "1 35022U 93036AGK 25349.61489874  .00001655  00000+0  33959-3 0  9991",
        "tle_line2": "2 35022  74.0270 316.4327 0046582 155.4398 204.9001 14.60846809591850"
      },
      "geometry": {
        "type": "Point",
        "coordinates": [
          44.556045811714434,
          73.7275304272185
        ]
      }
    },
    {
      "type": "Feature",
      "properties": {
        "norad_id": 35023,
        "name": "COSMOS 2251 DEB",
        "group": "cosmos-2251-debris",
        "lat": 23.872427178156684,
        "lon": -159.64567381078862,
        "alt_km": 590.4284574826743,
        "timestamp": "2025-12-22T09:53:37.795890+00:00",
        "meta_object_name": "COSMOS 2251 DEB",
        "meta_object_id": "1993-036AGL",
        "meta_epoch": "2025-12-21T16:39:09.256032",
        "meta_mean_motion": 14.95343232,
        "meta_eccentricity": 0.0033602,
        "meta_inclination": 74.036,
        "meta_ra_of_asc_node": 194.5249,
        "meta_arg_of_pericenter": 271.047,
        "meta_mean_anomaly": 207.982,
        "meta_ephemeris_type": 0,
        "meta_classification_type": "U",
        "meta_norad_cat_id": 35023,
        "meta_element_set_no": 999,
        "meta_rev_at_epoch": 88413,
        "meta_bstar": 0.0010752,
        "meta_mean_motion_dot": 0.00011977,
        "meta_mean_motion_ddot": 0,
        "tle_line1": "1 35023U 93036AGL 25355.69385713  .00011977  00000+0  10752-2 0  9997",
        "tle_line2": "2 35023  74.0360 194.5249 0033602 271.0470 207.9820 14.95343232884132"
      },
      "geometry": {
        "type": "Point",
        "coordinates": [
          -159.64567381078862,
          23.872427178156684
        ]
      }
    }
  ]
}